NORAD_CAT_ID,OBJECT_NAME,OBJECT_TYPE,EPOCH,MEAN_MOTION,ECCENTRICITY,INCLINATION,RA_OF_ASC_NODE,ARG_OF_PERICENTER,MEAN_ANOMALY,BSTAR,MEAN_MOTION_DOT,MEAN_MOTION_DDOT,TLE_LINE0,TLE_LINE1,TLE_LINE2,SEMIMAJOR_AXIS,PERIOD,APOGEE,PERIGEE,DECAYED
53562.0,STARLINK-4565,PAYLOAD,2022-11-17 14:00:01,15.08852301,0.0001392,53.2145,77.6307,72.3328,176.025,-0.0030297,-0.00048199,0.0,0 STARLINK-4565,1 53562U 22101AM  22321.58334491 -.00048199  00000-0 -30297-2 0  9990,2 53562  53.2145  77.6307 0001392  72.3328 176.0250 15.08852301  1301,6917.843000000003,95.437,540.6709999999998,538.745,0.0
53562.0,STARLINK-4565,PAYLOAD,2022-11-17 22:00:00,15.0883862,0.0001313,53.2146,76.134,68.6996,191.2425,-0.00091617,-0.00014838,0.0,0 STARLINK-4565,1 53562U 22101AM  22321.91667824 -.00014838  00000-0 -91617-3 0  9993,2 53562  53.2146  76.1340 0001313  68.6996 191.2425 15.08838620  1306,6917.885,95.438,540.658,538.841,0.0
53562.0,STARLINK-4565,PAYLOAD,2022-11-18 14:00:01,15.08819024,0.0001471,53.215,73.1412,70.6959,212.4182,-0.00017319,-3.042e-05,0.0,0 STARLINK-4565,1 53562U 22101AM  22322.58334491 -.00003042  00000-0 -17319-3 0  9990,2 53562  53.2150  73.1412 0001471  70.6959 212.4182 15.08819024  1308,6917.945,95.439,540.827,538.7919999999998,0.0
53562.0,STARLINK-4565,PAYLOAD,2022-11-18 22:00:00,15.08842443,0.0001409,53.2149,71.6445,68.8859,225.7931,-0.0012695,-0.00020436,0.0,0 STARLINK-4565,1 53562U 22101AM  22322.91667824 -.00020436  00000-0 -12695-2 0  9993,2 53562  53.2149  71.6445 0001409  68.8859 225.7931 15.08842443 14263,6917.873000000001,95.437,540.7130000000002,538.763,0.0
53562.0,STARLINK-4565,PAYLOAD,2022-11-19 14:00:01,15.08859875,0.0001406999999999,53.2153,68.652,69.1046,248.763,-0.0015564,-0.00024986,0.0,0 STARLINK-4565,1 53562U 22101AM  22323.58334491 -.00024986  00000-0 -15564-2 0  9990,2 53562  53.2153  68.6520 0001407  69.1046 248.7630 15.08859875 14367,6917.82,95.436,540.658,538.711,0.0
53562.0,STARLINK-4565,PAYLOAD,2022-11-19 22:00:00,15.08854257,0.0001293,53.2151,67.155,67.0055,262.472,-0.0020391,-0.00032606,0.0,0 STARLINK-4565,1 53562U 22101AM  22323.91667824 -.00032606  00000-0 -20391-2 0  9998,2 53562  53.2151  67.1550 0001293  67.0055 262.4720 15.08854257  1304,6917.837,95.437,540.596,538.807,0.0
53562.0,STARLINK-4565,PAYLOAD,2022-11-20 14:00:01,15.08819999,0.0001424,53.2154,64.1629,68.8673,283.7812,0.00015083,2.112e-05,0.0,0 STARLINK-4565,1 53562U 22101AM  22324.58334491  .00002112  00000-0  15083-3 0  9993,2 53562  53.2154  64.1629 0001424  68.8673 283.7812 15.08819999  1304,6917.941999999999,95.439,540.7919999999998,538.821,0.0
53562.0,STARLINK-4565,PAYLOAD,2022-11-20 22:00:00,15.08845222,0.0001361,53.2151,62.6658,68.4105,295.8058,-0.0015912,-0.00025526,0.0,0 STARLINK-4565,1 53562U 22101AM  22324.91667824 -.00025526  00000-0 -15912-2 0  9995,2 53562  53.2151  62.6658 0001361  68.4105 295.8058 15.08845222 14568,6917.864000000001,95.437,540.6709999999998,538.788,0.0
53562.0,STARLINK-4565,PAYLOAD,2022-11-21 14:00:01,15.08854023,0.0001456,53.2153,59.674,68.3572,319.0501,-0.00078717,-0.00012799,0.0,0 STARLINK-4565,1 53562U 22101AM  22325.58334491 -.00012799  00000-0 -78717-3 0  9991,2 53562  53.2153  59.6740 0001456  68.3572 319.0501 15.08854023  1309,6917.8380000000025,95.437,540.71,538.695,0.0
53562.0,STARLINK-4565,PAYLOAD,2022-11-22 00:00:00,15.08835847,0.0001409999999999,53.2153,57.8022,72.8137,59.109,0.00011708,1.576e-05,0.0,0 STARLINK-4565,1 53562U 22101AM  22326.00001157  .00001576  00000-0  11708-3 0  9995,2 53562  53.2153  57.8022 0001410  72.8137  59.1090 15.08835847  1307,6917.893,95.438,540.734,538.783,0.0
53562.0,STARLINK-4565,PAYLOAD,2022-11-22 14:00:01,15.08820304,0.0001477,53.2153,55.1849,67.2358,355.0466,0.00040689,6.19e-05,0.0,0 STARLINK-4565,1 53562U 22101AM  22326.58335648  .00006190  00000-0  40689-3 0  9990,2 53562  53.2153  55.1849 0001477  67.2358 355.0466 15.08820304 14818,6917.941,95.439,540.827,538.784,0.0
53562.0,STARLINK-4565,PAYLOAD,2022-11-22 22:00:00,15.08857347,0.0001440999999999,53.2152,53.6876,67.3344,6.4557,-0.0042195,-0.0006684999999999,0.0,0 STARLINK-4565,1 53562U 22101AM  22326.91667824 -.00066850  00000-0 -42195-2 0  9995,2 53562  53.2152  53.6876 0001441  67.3344   6.4557 15.08857347  1302,6917.8269999999975,95.436,540.689,538.696,0.0
53562.0,STARLINK-4565,PAYLOAD,2022-11-23 14:00:01,15.08811893,0.0001607,53.2155,50.6961,65.9683,30.9763,0.0011220999999999,0.00017602,0.0,0 STARLINK-4565,1 53562U 22101AM  22327.58334491  .00017602  00000-0  11221-2 0  9995,2 53562  53.2155  50.6961 0001607  65.9683  30.9763 15.08811893  1308,6917.965999999999,95.439,540.943,538.72,0.0
53562.0,STARLINK-4565,PAYLOAD,2022-11-23 22:00:00,15.08843255,0.0001527,53.2155,49.1987,66.8424,41.6701,-0.0012586,-0.00020265,0.0,0 STARLINK-4565,1 53562U 22101AM  22327.91667824 -.00020265  00000-0 -12586-2 0  9997,2 53562  53.2155  49.1987 0001527  66.8424  41.6701 15.08843255 15014,6917.87,95.437,540.7919999999998,538.679,0.0
53562.0,STARLINK-4565,PAYLOAD,2022-11-24 00:00:00,15.08826287,0.0001483,53.2157,48.8242,68.6482,132.7672,0.0010218,0.00016005,0.0,0 STARLINK-4565,1 53562U 22101AM  22328.00001157  .00016005  00000-0  10218-2 0  9994,2 53562  53.2157  48.8242 0001483  68.6482 132.7672 15.08826287  1303,6917.922,95.438,540.813,538.761,0.0
53562.0,STARLINK-4565,PAYLOAD,2022-11-24 14:00:01,15.08836094,0.0001639,53.2158,46.2071,63.1545,68.5473,0.0012952,0.00020383,0.0,0 STARLINK-4565,1 53562U 22101AM  22328.58334491  .00020383  00000-0  12952-2 0  9998,2 53562  53.2158  46.2071 0001639  63.1545  68.5473 15.08836094 15115,6917.892,95.438,540.891,538.623,0.0
53562.0,STARLINK-4565,PAYLOAD,2022-11-24 22:00:00,15.08863558,0.0001486,53.2159,44.7095,64.5561,78.7462,-0.0034227,-0.00054384,0.0,0 STARLINK-4565,1 53562U 22101AM  22328.91667824 -.00054384  00000-0 -34227-2 0  9993,2 53562  53.2159  44.7095 0001486  64.5561  78.7462 15.08863558  1300,6917.808000000001,95.436,540.701,538.645,0.0
53562.0,STARLINK-4565,PAYLOAD,2022-11-25 06:00:00,15.08839833,0.000147,53.2162,43.2126,68.8741,86.0231,0.0006732,0.00010442,0.0,0 STARLINK-4565,1 53562U 22101AM  22329.25001157  .00010442  00000-0  67320-3 0  9998,2 53562  53.2162  43.2126 0001470  68.8741  86.0231 15.08839833 15213,6917.880999999999,95.438,540.763,538.729,0.0
53562.0,STARLINK-4565,PAYLOAD,2022-11-25 14:00:01,15.08833113,0.0001575999999999,53.2161,41.7179,58.9106,107.5919,0.0020957,0.00033216,0.0,0 STARLINK-4565,1 53562U 22101AM  22329.58334491  .00033216  00000-0  20957-2 0  9992,2 53562  53.2161  41.7179 0001576  58.9106 107.5919 15.08833113  1307,6917.901,95.438,540.857,538.6759999999998,0.0
53562.0,STARLINK-4565,PAYLOAD,2022-11-26 00:00:00,15.08821354,0.0001363,53.2167,39.8455,63.3546,207.6652,0.0024815,0.00039406,0.0,0 STARLINK-4565,1 53562U 22101AM  22330.00001157  .00039406  00000-0  24815-2 0  9995,2 53562  53.2167  39.8455 0001363  63.3546 207.6652 15.08821354  1300,6917.937,95.439,540.745,538.859,0.0
53562.0,STARLINK-4565,PAYLOAD,2022-11-26 06:00:00,15.08860086,0.000143,53.2164,38.7235,66.6742,123.0257,-0.0024372,-0.00038888,0.0,0 STARLINK-4565,1 53562U 22101AM  22330.25001157 -.00038888  00000-0 -24372-2 0  9995,2 53562  53.2164  38.7235 0001430  66.6742 123.0257 15.08860086 15368,6917.819,95.436,540.673,538.695,0.0
53562.0,STARLINK-4565,PAYLOAD,2022-11-26 14:00:01,15.08806897,0.0001604,53.2162,37.2286,58.0398,143.2683,0.0028369,0.0004511,0.0,0 STARLINK-4565,1 53562U 22101AM  22330.58334491  .00045110  00000-0  28369-2 0  9995,2 53562  53.2162  37.2286 0001604  58.0398 143.2683 15.08806897  1307,6917.982,95.44,540.956,538.737,0.0
53562.0,STARLINK-4565,PAYLOAD,2022-11-26 22:00:00,15.08842762,0.0001456,53.2161,35.7307,62.6032,150.2805,-0.0001333,-2.409e-05,0.0,0 STARLINK-4565,1 53562U 22101AM  22330.91667824 -.00002409  00000-0 -13330-3 0  9990,2 53562  53.2161  35.7307 0001456  62.6032 150.2805 15.08842762 15461,6917.871999999999,95.437,540.744,538.73,0.0
53562.0,STARLINK-4565,PAYLOAD,2022-11-27 14:00:01,15.08808064,0.0001493,53.216,32.7393,55.3534,180.7351,0.0030688,0.00048848,0.0,0 STARLINK-4565,1 53562U 22101AM  22331.58334491  .00048848  00000-0  30688-2 0  9994,2 53562  53.2160  32.7393 0001493  55.3534 180.7351 15.08808064  1308,6917.978,95.44,540.876,538.81,0.0
53562.0,STARLINK-4565,PAYLOAD,2022-11-28 00:00:00,15.08826861,0.0001243,53.2157,30.8668,61.903,278.6676,3.5663e-05,2.8e-06,0.0,0 STARLINK-4565,1 53562U 22101AM  22332.00001157  .00000280  00000-0  35663-4 0  9990,2 53562  53.2157  30.8668 0001243  61.9030 278.6676 15.08826861  1307,6917.920999999999,95.438,540.645,538.9259999999998,0.0
53562.0,STARLINK-4565,PAYLOAD,2022-11-28 06:00:00,15.08835311,0.0001244,53.2158,29.745,62.1695,197.0825,-0.00076801,-0.00012488,0.0,0 STARLINK-4565,1 53562U 22101AM  22332.25001157 -.00012488  00000-0 -76801-3 0  9990,2 53562  53.2158  29.7450 0001244  62.1695 197.0825 15.08835311 15669,6917.895,95.438,540.62,538.899,0.0
53562.0,STARLINK-4565,PAYLOAD,2022-11-28 22:00:01,15.08834899,0.0001239,53.2155,26.7518,57.8673,224.622,0.00061576,9.524e-05,0.0,0 STARLINK-4565,1 53562U 22101AM  22332.91668981  .00009524  00000-0  61576-3 0  9995,2 53562  53.2155  26.7518 0001239  57.8673 224.6220 15.08834899 15777,6917.896,95.438,540.618,538.904,0.0
53562.0,STARLINK-4565,PAYLOAD,2022-11-29 14:00:01,15.0882142,0.0001373,53.2152,23.7605,50.4266,255.2717,0.0013425999999999,0.00021133,0.0,0 STARLINK-4565,1 53562U 22101AM  22333.58335648  .00021133  00000-0  13426-2 0  9990,2 53562  53.2152  23.7605 0001373  50.4266 255.2717 15.08821420  1305,6917.937,95.439,540.752,538.852,0.0
53562.0,STARLINK-4565,PAYLOAD,2022-11-29 22:00:00,15.08810127,0.0001293,53.2152,22.2624,57.5809,259.6429,0.00082233,0.00012813,0.0,0 STARLINK-4565,1 53562U 22101AM  22333.91667824  .00012813  00000-0  82233-3 0  9999,2 53562  53.2152  22.2624 0001293  57.5809 259.6429 15.08810127 15925,6917.972,95.439,540.731,538.942,0.0
